[{"OBJECT_NAME":"HULIANWANG DIGUI-65","OBJECT_ID":"2025-174H","EPOCH":"2026-03-02T22:55:09.409728","MEAN_MOTION":13.24422037,"ECCENTRICITY":0.00012029,"INCLINATION":86.4849,"RA_OF_ASC_NODE":287.7949,"ARG_OF_PERICENTER":85.7201,"MEAN_ANOMALY":274.407,"EPHEMERIS_TYPE":0,"CLASSIFICATION_TYPE":"U","NORAD_CAT_ID":65171,"ELEMENT_SET_NO":999,"REV_AT_EPOCH":2672,"BSTAR":0.00018273648,"MEAN_MOTION_DOT":9.3e-7,"MEAN_MOTION_DDOT":0},{"OBJECT_NAME":"HULIANWANG DIGUI-66","OBJECT_ID":"2025-174J","EPOCH":"2026-03-02T22:44:18.773664","MEAN_MOTION":13.24421629,"ECCENTRICITY":0.0001238,"INCLINATION":86.4884,"RA_OF_ASC_NODE":287.8628,"ARG_OF_PERICENTER":88.0989,"MEAN_ANOMALY":272.0287,"EPHEMERIS_TYPE":0,"CLASSIFICATION_TYPE":"U","NORAD_CAT_ID":65172,"ELEMENT_SET_NO":999,"REV_AT_EPOCH":2672,"BSTAR":0.00015209692,"MEAN_MOTION_DOT":8.0e-7,"MEAN_MOTION_DDOT":0},{"OBJECT_NAME":"HULIANWANG DIGUI-67","OBJECT_ID":"2025-174K","EPOCH":"2026-03-02T23:06:06.881760","MEAN_MOTION":13.24421301,"ECCENTRICITY":0.00012342,"INCLINATION":86.4896,"RA_OF_ASC_NODE":287.891,"ARG_OF_PERICENTER":86.4412,"MEAN_ANOMALY":273.6863,"EPHEMERIS_TYPE":0,"CLASSIFICATION_TYPE":"U","NORAD_CAT_ID":65173,"ELEMENT_SET_NO":999,"REV_AT_EPOCH":2669,"BSTAR":0.00016661436,"MEAN_MOTION_DOT":8.6e-7,"MEAN_MOTION_DDOT":0},{"OBJECT_NAME":"HULIANWANG DIGUI-68","OBJECT_ID":"2025-178A","EPOCH":"2026-03-02T23:38:33.351072","MEAN_MOTION":13.24423735,"ECCENTRICITY":0.00020435,"INCLINATION":86.4936,"RA_OF_ASC_NODE":49.3599,"ARG_OF_PERICENTER":81.1456,"MEAN_ANOMALY":278.9909,"EPHEMERIS_TYPE":0,"CLASSIFICATION_TYPE":"U","NORAD_CAT_ID":65228,"ELEMENT_SET_NO":999,"REV_AT_EPOCH":2625,"BSTAR":0.00012267371,"MEAN_MOTION_DOT":6.7e-7,"MEAN_MOTION_DDOT":0},{"OBJECT_NAME":"HULIANWANG DIGUI-69","OBJECT_ID":"2025-178B","EPOCH":"2026-03-02T23:28:06.503520","MEAN_MOTION":13.24417497,"ECCENTRICITY":0.00019721,"INCLINATION":86.4955,"RA_OF_ASC_NODE":49.3969,"ARG_OF_PERICENTER":82.3005,"MEAN_ANOMALY":277.8353,"EPHEMERIS_TYPE":0,"CLASSIFICATION_TYPE":"U","NORAD_CAT_ID":65229,"ELEMENT_SET_NO":999,"REV_AT_EPOCH":2625,"BSTAR":8.1862415e-5,"MEAN_MOTION_DOT":5.0e-7,"MEAN_MOTION_DDOT":0},{"OBJECT_NAME":"HULIANWANG DIGUI-70","OBJECT_ID":"2025-178C","EPOCH":"2026-03-02T23:17:10.135680","MEAN_MOTION":13.24418443,"ECCENTRICITY":0.00020777,"INCLINATION":86.4894,"RA_OF_ASC_NODE":49.2696,"ARG_OF_PERICENTER":81.3504,"MEAN_ANOMALY":278.7866,"EPHEMERIS_TYPE":0,"CLASSIFICATION_TYPE":"U","NORAD_CAT_ID":65230,"ELEMENT_SET_NO":999,"REV_AT_EPOCH":2625,"BSTAR":6.8638809e-5,"MEAN_MOTION_DOT":4.4e-7,"MEAN_MOTION_DDOT":0},{"OBJECT_NAME":"HULIANWANG DIGUI-71","OBJECT_ID":"2025-178D","EPOCH":"2026-03-02T23:06:15.364512","MEAN_MOTION":13.24419341,"ECCENTRICITY":0.0002013,"INCLINATION":86.4953,"RA_OF_ASC_NODE":49.3851,"ARG_OF_PERICENTER":82.1271,"MEAN_ANOMALY":278.0092,"EPHEMERIS_TYPE":0,"CLASSIFICATION_TYPE":"U","NORAD_CAT_ID":65231,"ELEMENT_SET_NO":999,"REV_AT_EPOCH":2625,"BSTAR":1.8711858e-5,"MEAN_MOTION_DOT":2.3e-7,"MEAN_MOTION_DDOT":0},{"OBJECT_NAME":"HULIANWANG DIGUI-72","OBJECT_ID":"2025-178E","EPOCH":"2026-03-02T22:55:19.028640","MEAN_MOTION":13.24419881,"ECCENTRICITY":0.00020092,"INCLINATION":86.4936,"RA_OF_ASC_NODE":49.3461,"ARG_OF_PERICENTER":83.1714,"MEAN_ANOMALY":276.9648,"EPHEMERIS_TYPE":0,"CLASSIFICATION_TYPE":"U","NORAD_CAT_ID":65232,"ELEMENT_SET_NO":999,"REV_AT_EPOCH":2625,"BSTAR":2.2755855e-5,"MEAN_MOTION_DOT":2.4e-7,"MEAN_MOTION_DDOT":0},{"OBJECT_NAME":"HULIANWANG DIGUI-73","OBJECT_ID":"2025-187A","EPOCH":"2026-03-02T21:48:29.881152","MEAN_MOTION":13.29342272,"ECCENTRICITY":0.00010551,"INCLINATION":50.0036,"RA_OF_ASC_NODE":227.0407,"ARG_OF_PERICENTER":129.4243,"MEAN_ANOMALY":230.6723,"EPHEMERIS_TYPE":0,"CLASSIFICATION_TYPE":"U","NORAD_CAT_ID":65305,"ELEMENT_SET_NO":999,"REV_AT_EPOCH":2556,"BSTAR":5.9665978e-5,"MEAN_MOTION_DOT":-9.6e-7,"MEAN_MOTION_DDOT":0},{"OBJECT_NAME":"HULIANWANG DIGUI-74","OBJECT_ID":"2025-187B","EPOCH":"2026-03-02T21:24:24.904224","MEAN_MOTION":13.29342789,"ECCENTRICITY":0.00010542,"INCLINATION":50.0078,"RA_OF_ASC_NODE":227.0192,"ARG_OF_PERICENTER":130.4379,"MEAN_ANOMALY":229.6586,"EPHEMERIS_TYPE":0,"CLASSIFICATION_TYPE":"U","NORAD_CAT_ID":65306,"ELEMENT_SET_NO":999,"REV_AT_EPOCH":2556,"BSTAR":7.4072657e-5,"MEAN_MOTION_DOT":-9.0e-7,"MEAN_MOTION_DDOT":0},{"OBJECT_NAME":"HULIANWANG DIGUI-75","OBJECT_ID":"2025-187C","EPOCH":"2026-03-02T22:48:42.077664","MEAN_MOTION":13.29341872,"ECCENTRICITY":0.00010498,"INCLINATION":50.0071,"RA_OF_ASC_NODE":226.6513,"ARG_OF_PERICENTER":129.5543,"MEAN_ANOMALY":230.5422,"EPHEMERIS_TYPE":0,"CLASSIFICATION_TYPE":"U","NORAD_CAT_ID":65307,"ELEMENT_SET_NO":999,"REV_AT_EPOCH":2557,"BSTAR":6.7774401e-5,"MEAN_MOTION_DOT":-9.3e-7,"MEAN_MOTION_DDOT":0},{"OBJECT_NAME":"HULIANWANG DIGUI-76","OBJECT_ID":"2025-187D","EPOCH":"2026-03-02T22:24:54.671040","MEAN_MOTION":13.29339202,"ECCENTRICITY":0.00010418,"INCLINATION":49.9995,"RA_OF_ASC_NODE":227.1056,"ARG_OF_PERICENTER":127.1817,"MEAN_ANOMALY":232.915,"EPHEMERIS_TYPE":0,"CLASSIFICATION_TYPE":"U","NORAD_CAT_ID":65308,"ELEMENT_SET_NO":999,"REV_AT_EPOCH":2556,"BSTAR":5.9761924e-5,"MEAN_MOTION_DOT":-9.6e-7,"MEAN_MOTION_DDOT":0},{"OBJECT_NAME":"HULIANWANG DIGUI-77","OBJECT_ID":"2025-187E","EPOCH":"2026-03-02T22:12:40.486176","MEAN_MOTION":13.29341105,"ECCENTRICITY":0.00010786,"INCLINATION":50.003,"RA_OF_ASC_NODE":227.1148,"ARG_OF_PERICENTER":127.7077,"MEAN_ANOMALY":232.3893,"EPHEMERIS_TYPE":0,"CLASSIFICATION_TYPE":"U","NORAD_CAT_ID":65309,"ELEMENT_SET_NO":999,"REV_AT_EPOCH":2556,"BSTAR":6.3546478e-5,"MEAN_MOTION_DOT":-9.5e-7,"MEAN_MOTION_DDOT":0},{"OBJECT_NAME":"HULIANWANG DIGUI-78","OBJECT_ID":"2025-187F","EPOCH":"2026-03-02T23:00:47.125728","MEAN_MOTION":13.29341519,"ECCENTRICITY":0.00010328,"INCLINATION":50.0095,"RA_OF_ASC_NODE":226.7324,"ARG_OF_PERICENTER":130.3835,"MEAN_ANOMALY":229.7128,"EPHEMERIS_TYPE":0,"CLASSIFICATION_TYPE":"U","NORAD_CAT_ID":65310,"ELEMENT_SET_NO":999,"REV_AT_EPOCH":2557,"BSTAR":6.4069873e-5,"MEAN_MOTION_DOT":-9.4e-7,"MEAN_MOTION_DDOT":0},{"OBJECT_NAME":"HULIANWANG DIGUI-79","OBJECT_ID":"2025-187G","EPOCH":"2026-03-02T22:36:30.667104","MEAN_MOTION":13.29343019,"ECCENTRICITY":0.00010499,"INCLINATION":50.0024,"RA_OF_ASC_NODE":227.1929,"ARG_OF_PERICENTER":128.0122,"MEAN_ANOMALY":232.0845,"EPHEMERIS_TYPE":0,"CLASSIFICATION_TYPE":"U","NORAD_CAT_ID":65311,"ELEMENT_SET_NO":999,"REV_AT_EPOCH":2556,"BSTAR":5.212728e-5,"MEAN_MOTION_DOT":-1.0e-6,"MEAN_MOTION_DDOT":0},{"OBJECT_NAME":"HULIANWANG DIGUI-80","OBJECT_ID":"2025-187H","EPOCH":"2026-03-02T22:00:36.178560","MEAN_MOTION":13.29341084,"ECCENTRICITY":0.00010685,"INCLINATION":50.0015,"RA_OF_ASC_NODE":227.0499,"ARG_OF_PERICENTER":127.5733,"MEAN_ANOMALY":232.5237,"EPHEMERIS_TYPE":0,"CLASSIFICATION_TYPE":"U","NORAD_CAT_ID":65312,"ELEMENT_SET_NO":999,"REV_AT_EPOCH":2556,"BSTAR":5.1713476e-5,"MEAN_MOTION_DOT":-1.0e-6,"MEAN_MOTION_DDOT":0}]
