HULIANWANG DIGUI-65     
1 65171U 25174H   26061.95497002  .00000093  00000+0  18274-3 0  9996
2 65171  86.4849 287.7949 0001202  85.7201 274.4070 13.24422037 26724
HULIANWANG DIGUI-66     
1 65172U 25174J   26061.94743951  .00000080  00000+0  15210-3 0  9996
2 65172  86.4884 287.8628 0001238  88.0989 272.0287 13.24421629 26727
HULIANWANG DIGUI-67     
1 65173U 25174K   26061.96257965  .00000086  00000+0  16661-3 0  9991
2 65173  86.4896 287.8910 0001234  86.4412 273.6863 13.24421301 26694
HULIANWANG DIGUI-68     
1 65228U 25178A   26061.98510823  .00000067  00000+0  12267-3 0  9990
2 65228  86.4936  49.3599 0002043  81.1456 278.9909 13.24423735 26257
HULIANWANG DIGUI-69     
1 65229U 25178B   26061.97785305  .00000050  00000+0  81862-4 0  9999
2 65229  86.4955  49.3969 0001972  82.3005 277.8353 13.24417497 26252
HULIANWANG DIGUI-70     
1 65230U 25178C   26061.97025620  .00000044  00000+0  68639-4 0  9998
2 65230  86.4894  49.2696 0002077  81.3504 278.7866 13.24418443 26253
HULIANWANG DIGUI-71     
1 65231U 25178D   26061.96267783  .00000023  00000+0  18712-4 0  9990
2 65231  86.4953  49.3851 0002013  82.1271 278.0092 13.24419341 26256
HULIANWANG DIGUI-72     
1 65232U 25178E   26061.95508135  .00000024  00000+0  22756-4 0  9993
2 65232  86.4936  49.3461 0002009  83.1714 276.9648 13.24419881 26256
HULIANWANG DIGUI-73     
1 65305U 25187A   26061.90867918 -.00000096  00000+0  59666-4 0  9996
2 65305  50.0036 227.0407 0001055 129.4243 230.6723 13.29342272 25569
HULIANWANG DIGUI-74     
1 65306U 25187B   26061.89195491 -.00000090  00000+0  74073-4 0  9998
2 65306  50.0078 227.0192 0001054 130.4379 229.6586 13.29342789 25566
HULIANWANG DIGUI-75     
1 65307U 25187C   26061.95048701 -.00000093  00000+0  67774-4 0  9990
2 65307  50.0071 226.6513 0001049 129.5543 230.5422 13.29341872 25571
HULIANWANG DIGUI-76     
1 65308U 25187D   26061.93396610 -.00000096  00000+0  59762-4 0  9995
2 65308  49.9995 227.1056 0001041 127.1817 232.9150 13.29339202 25569
HULIANWANG DIGUI-77     
1 65309U 25187E   26061.92546859 -.00000095  00000+0  63546-4 0  9991
2 65309  50.0030 227.1148 0001078 127.7077 232.3893 13.29341105 25562
HULIANWANG DIGUI-78     
1 65310U 25187F   26061.95887877 -.00000094  00000+0  64070-4 0  9996
2 65310  50.0095 226.7324 0001032 130.3835 229.7128 13.29341519 25579
HULIANWANG DIGUI-79     
1 65311U 25187G   26061.94202161 -.00000100  00000+0  52127-4 0  9991
2 65311  50.0024 227.1929 0001049 128.0122 232.0845 13.29343019 25568
HULIANWANG DIGUI-80     
1 65312U 25187H   26061.91708540 -.00000100  00000+0  51713-4 0  9991
2 65312  50.0015 227.0499 0001068 127.5733 232.5237 13.29341084 25563
